OBJECT_NAME,OBJECT_ID,EPOCH,MEAN_MOTION,ECCENTRICITY,INCLINATION,RA_OF_ASC_NODE,ARG_OF_PERICENTER,MEAN_ANOMALY,EPHEMERIS_TYPE,CLASSIFICATION_TYPE,NORAD_CAT_ID,ELEMENT_SET_NO,REV_AT_EPOCH,BSTAR,MEAN_MOTION_DOT,MEAN_MOTION_DDOT
BUFENG 1A,2019-032A,2026-05-13T07:08:37.106880,15.27576881,.00068418,44.9733,247.4450,38.9161,321.2213,0,U,44310,999,38185,.26207151E-3,.6913E-4,0
BUFENG 1B,2019-032B,2026-05-13T05:29:03.170688,15.27122377,.00239265,44.9730,200.9292,129.6633,230.6365,0,U,44311,999,38240,.20247349E-3,.523E-4,0
JILIN-1 GAOFEN 3A,2019-032C,2026-05-13T04:55:35.048928,15.31859691,.00031512,44.9750,189.3425,101.9481,258.1757,0,U,44312,999,38247,.19472068E-3,.5801E-4,0
TIANQI-3,2019-032E,2026-05-13T05:28:37.598880,15.37505221,.0005565,45.0003,173.6143,124.8288,235.3123,0,U,44314,999,38269,.25488233E-3,.9254E-4,0
RCM-1,2019-033A,2026-05-13T03:21:49.250304,14.92590767,.00015329,97.7599,141.0792,90.5103,269.6292,0,U,44322,999,37685,.32626067E-4,.28E-5,0
RCM-3,2019-033B,2026-05-13T07:07:27.314688,14.92589889,.00015043,97.7600,141.3278,90.5236,269.6155,0,U,44323,999,37689,.21472111E-4,.165E-5,0
RCM-2,2019-033C,2026-05-12T23:36:45.099648,14.92587179,.0001426,97.7594,140.9698,91.1477,268.9905,0,U,44324,999,37683,-.66386E-6,-.63E-6,0
AT&T T-16,2019-034A,2026-05-13T05:43:41.854368,1.00270001,.0000734,0.0455,84.7962,126.8135,4.4612,0,U,44333,999,2528,0,-.102E-5,0
EUTELSAT 7C,2019-034B,2026-05-13T04:20:38.744736,1.00271386,.00031298,0.0744,176.6097,220.6026,265.9015,0,U,44334,999,648,0,.61E-6,0
BEIDOU-3 IGSO-2,2019-035A,2026-05-12T15:41:37.269312,1.00277740,.003968,55.2385,159.1745,215.7907,210.7620,0,U,44337,999,2531,0,-.46E-6,0
PROX-1,2019-036A,2026-05-12T21:38:57.676416,14.89761063,.0006508,23.9965,349.7894,346.0021,14.0298,0,U,44339,999,36820,.84513E-3,.8587E-4,0
NPSAT1,2019-036B,2026-05-13T04:40:12.693504,14.74244633,.00080225,23.9982,85.5963,173.8491,186.2104,0,U,44340,999,36732,.44939126E-3,.3285E-4,0
OTB,2019-036C,2026-05-12T12:11:27.134016,14.57144373,.0010788,23.9954,206.3396,334.7090,25.2873,0,U,44341,999,36616,.13322E-3,.831E-5,0
FORMOSAT 7-3,2019-036E,2026-05-12T22:55:32.527776,15.09526982,.00006026,23.9991,60.9713,196.2566,163.7919,0,U,44343,999,37791,.16631498E-3,.3082E-4,0
DSX,2019-036F,2026-05-11T16:02:15.735552,4.54375562,.19678407,42.3295,4.0252,0.1901,359.9275,0,U,44344,999,11413,0,-.43E-6,0
FORMOSAT 7-1,2019-036L,2026-05-12T16:56:33.465696,14.96356634,.00010217,23.9976,271.5700,108.0181,252.0431,0,U,44349,999,37933,.13251418E-3,.1839E-4,0
FORMOSAT 7-4,2019-036M,2026-05-12T22:16:49.925568,14.96351044,.0001216,23.9991,332.1738,128.4203,231.6407,0,U,44350,999,37878,.13764E-3,.1898E-4,0
FORMOSAT 7-2,2019-036N,2026-05-13T00:25:02.692128,14.96347867,.00007656,23.9988,25.8870,129.8456,230.2112,0,U,44351,999,37831,.12990925E-3,.1808E-4,0
FORMOSAT 7-6,2019-036Q,2026-05-12T21:12:54.207936,14.96359513,.0001395,23.9964,207.6064,58.6000,301.4637,0,U,44353,999,37652,.11765E-3,.1667E-4,0
FORMOSAT 7-5,2019-036V,2026-05-13T04:40:24.504384,14.96358687,.000069,23.9970,144.2595,118.1375,241.9196,0,U,44358,999,37710,.11111511E-3,.1591E-4,0
METEOR-M2 2,2019-038A,2026-05-13T06:17:13.072704,14.24356319,.00022775,98.9137,120.0350,101.1542,258.9893,0,U,44387,999,35632,.6886301E-4,.113E-5,0
ICEYE-X4,2019-038D,2026-05-13T07:31:11.241120,15.28476169,.00149826,97.8792,164.1933,71.2096,289.0766,0,U,44390,999,37647,.25807894E-3,.7093E-4,0
MOMENTUS-X1,2019-038Y,2026-05-13T01:48:23.402304,15.63693378,.00099642,97.6794,175.3270,138.2939,221.9080,0,U,44408,999,38106,.28302919E-3,.26342E-3,0
COSMOS 2538,2019-039D,2026-05-13T07:02:38.724000,15.20303908,.00430998,97.5882,212.4585,164.3162,195.9419,0,U,44424,999,37460,.18321182E-3,.4006E-4,0
YAOGAN-30 06A,2019-045A,2026-05-13T06:58:02.745984,15.02481625,.000422,34.9929,182.7579,325.4347,34.6087,0,U,44449,999,37136,.10318302E-3,.1368E-4,0
YAOGAN-30 06B,2019-045B,2026-05-13T06:26:33.864000,15.02522799,.00081416,34.9912,182.4325,131.9713,228.1690,0,U,44450,999,37140,.10202871E-3,.1354E-4,0
YAOGAN-30 06C,2019-045C,2026-05-13T05:52:35.455584,15.02508477,.00003273,34.9924,182.4528,287.7638,72.3035,0,U,44451,999,37129,.10418837E-3,.1382E-4,0
MERIDIAN 8,2019-046A,2026-05-12T07:50:24.255168,2.00607860,.70655816,63.1157,55.3791,274.7652,14.8639,0,U,44453,999,4962,0,.3E-6,0
COSMOS 2539,2019-048A,2026-05-12T14:38:31.629984,1.00273399,.0000499,0.0043,39.9792,185.6403,236.4096,0,U,44457,999,2487,0,.94E-6,0
EDRS-C,2019-049A,2026-05-12T20:23:47.610240,1.00270963,.00009995,0.0170,271.5465,145.0947,262.4389,0,U,44475,999,2485,0,-.249E-5,0
INTELSAT 39 (IS-39),2019-049B,2026-05-13T02:51:34.705152,1.00270186,.00005733,0.0173,282.9748,345.1979,67.5598,0,U,44476,999,2477,0,.47E-6,0
AMOS-17,2019-050A,2026-05-12T02:41:19.125888,1.00270420,.00014708,0.0139,327.3619,80.0339,239.8250,0,U,44479,999,2482,0,.121E-5,0
AEHF-5 (USA 292),2019-051A,2026-05-13T03:55:21.787104,1.00267154,.006867,1.4872,333.5384,2.1382,47.0985,0,U,44481,999,2491,0,-.246E-5,0
BRO-1,2019-054A,2026-05-12T10:12:16.147296,15.78012015,.00087634,44.9952,141.4138,57.3847,302.7900,0,U,44495,999,37407,.5207207E-3,.91684E-3,0
GLOBAL-4,2019-054E,2026-05-13T01:06:31.249728,15.61031627,.00036213,45.0061,78.6294,106.4142,253.7152,0,U,44499,999,37486,.35476204E-3,.30287E-3,0
NAVSTAR 78 (USA 293),2019-056A,2026-05-10T06:11:53.149056,2.00569435,.0060147,55.6545,332.6508,197.3681,162.7587,0,U,44506,999,4931,0,-.53E-6,0
COSMOS 2540,2019-057A,2026-05-13T07:43:45.338592,13.85941398,.00146218,99.2072,145.4717,264.1161,95.8329,0,U,44517,999,33904,.59442045E-4,.24E-6,0
KX-09,2019-058B,2026-05-13T06:50:50.408160,14.96573449,.00116511,97.7788,146.7836,98.3476,261.9066,0,U,44520,999,36481,.1502136E-4,.112E-5,0
ZY-1 02D,2019-059A,2026-05-13T06:52:50.551680,14.35448587,.00008815,98.3209,196.0037,160.2624,199.8596,0,U,44528,999,34933,.21467959E-4,.2E-6,0
BNU-1 (JINGSHI 1),2019-059B,2026-05-13T08:02:02.113152,14.48360329,.0014388,98.6007,261.7825,117.0455,243.2208,0,U,44529,999,35194,.95183833E-4,.31E-5,0
TAURUS-1 (JINNIUZUO 1),2019-059C,2026-05-13T07:13:30.052992,14.71706216,.00094354,98.6389,295.9815,67.3682,292.8520,0,U,44530,999,35351,.42976555E-3,.2625E-4,0
ZHUHAI-1 03B,2019-060C,2026-05-13T06:16:32.452608,15.52119108,.00098497,97.5487,289.2069,88.9984,271.2397,0,U,44536,999,37090,.30531928E-3,.18397E-3,0
ZHUHAI-1 03C,2019-060D,2026-05-13T06:49:57.728352,15.94883259,.00048325,97.5471,301.8032,313.6681,46.4193,0,U,44537,999,37168,.74391683E-3,.284327E-2,.33611089E-4
ZHUHAI-1 03D,2019-060E,2026-05-13T06:26:27.397824,15.47746235,.00082623,97.5345,281.6430,76.0329,284.1839,0,U,44538,999,37067,.35869102E-3,.18527E-3,0
ZHUHAI-1 03E,2019-060F,2026-05-13T07:06:24.263424,15.39897393,.00070055,97.5564,282.0765,140.9759,219.1993,0,U,44539,999,37039,.26736475E-3,.10554E-3,0
BEIDOU-3 M24,2019-061A,2026-05-12T06:23:48.569568,1.86229288,.0008069,54.3947,183.9396,3.0711,357.0175,0,U,44542,999,4512,0,.79E-6,0
BEIDOU-3 M23,2019-061B,2026-05-11T08:23:13.358688,1.86227672,.00051382,54.3931,183.9390,344.4737,32.5944,0,U,44543,999,4511,0,.67E-6,0
YUNHAI-1 02,2019-063A,2026-05-13T05:05:58.454304,14.32682288,.00044474,98.4133,144.6744,255.6388,104.4303,0,U,44547,999,34686,.10476293E-3,.242E-5,0
COSMOS 2541,2019-065A,2026-05-11T21:11:54.248064,2.00617881,.64863939,62.7111,160.3336,272.1444,20.3925,0,U,44552,999,4849,0,.199E-5,0
GAOFEN-10R,2019-066A,2026-05-13T06:30:34.183008,14.82980631,.00041764,98.0484,86.6026,245.6324,114.4454,0,U,44622,999,35720,.90195409E-4,.678E-5,0
EUTELSAT 5 WEST B,2019-067A,2026-05-13T04:28:38.687232,1.00271192,.00030389,0.0660,352.3715,56.4792,244.2705,0,U,44624,999,2408,0,-.29E-6,0
PALISADE,2019-069A,2026-05-12T23:11:59.472384,13.11903929,.00101109,87.8836,286.7803,152.0261,208.1413,0,U,44634,999,31449,.70438574E-3,.264E-5,0
TJS-4,2019-070A,2026-05-13T02:57:41.618304,1.00273653,.00030743,0.1174,82.2246,6.4097,270.2348,0,U,44637,999,2418,0,-.157E-5,0
GAOFEN-7,2019-072A,2026-05-13T06:36:39.786336,15.21321059,.00173658,97.2451,196.0504,153.3957,206.8174,0,U,44703,999,36233,.1084882E-3,.237E-4,0
BEIDOU-3 IGSO-3,2019-073A,2026-04-30T20:24:33.185376,1.00251230,.00424046,54.8842,281.4069,188.8195,170.9972,0,U,44709,999,2398,0,-.212E-5,0
STARLINK-1008,2019-074B,2026-05-12T23:52:54.375456,15.46676416,.0001846,53.1539,236.6839,21.9277,338.1810,0,U,44714,999,35876,.21712401E-3,.10597E-3,0
STARLINK-1012,2019-074F,2026-05-13T06:07:40.410048,15.46857542,.00014877,53.1581,235.7601,13.2279,346.8767,0,U,44718,999,35879,.1957455E-3,.9571E-4,0
STARLINK-1017,2019-074L,2026-05-13T00:19:18.619680,15.29594999,.00040089,53.0495,233.3893,310.3120,49.7529,0,U,44723,999,35879,.91862771E-3,.26447E-3,0
STARLINK-1019,2019-074M,2026-05-13T11:46:37.806240,16.33663314,.000449,53.0206,163.7275,316.2911,43.7777,0,U,44724,999,35979,.66256E-3,.4463885E-1,.12214E-4
STARLINK-1020,2019-074N,2026-05-12T18:40:51.171456,15.51032811,.00018072,53.1597,263.0005,0.5806,359.5206,0,U,44725,999,35835,.8964586E-3,.52898E-3,0
STARLINK-1036,2019-074AE,2026-05-12T03:26:12.197472,15.66591772,.00021047,53.0425,238.4529,252.4660,107.6126,0,U,44741,999,35864,.3204358E-3,.33751E-3,0
STARLINK-1039,2019-074AH,2026-05-13T03:04:20.314560,15.26910598,.00014895,53.0624,277.7193,336.5540,23.5390,0,U,44744,999,35818,.11048807E-2,.2936E-3,0
STARLINK-1042,2019-074AL,2026-05-12T17:56:57.179328,15.52916869,.00030971,53.0414,146.6645,29.9643,330.1543,0,U,44747,999,36001,.21676977E-3,.13267E-3,0
STARLINK-1043,2019-074AM,2026-05-13T00:31:15.072672,15.58163451,.00018089,53.0498,243.0736,304.9053,55.1789,0,U,44748,999,35866,.36770607E-3,.27827E-3,0
STARLINK-1046,2019-074AQ,2026-05-12T02:13:59.687616,15.51893148,.00048391,53.0492,267.7314,348.7238,11.3662,0,U,44751,999,35823,.71137034E-3,.43163E-3,0
STARLINK-1047,2019-074AR,2026-05-13T05:18:48.516768,15.33938419,.00035469,53.0682,204.2036,68.2278,291.9101,0,U,44752,999,35924,.14413479E-3,.4427E-4,0
